{
  "type": "FeatureCollection",
  "features": [
    {"type":"Feature","properties":{"id":"cw-1"},"geometry":{"type":"LineString","coordinates":[[-9.797,-23.281],[-1.486,-23.333]]}},
    {"type":"Feature","properties":{"id":"cw-2"},"geometry":{"type":"LineString","coordinates":[[-9.797,30.589],[-9.849,22.332]]}},
    {"type":"Feature","properties":{"id":"cw-3"},"geometry":{"type":"LineString","coordinates":[[27.36,19.618],[27.36,22.339]]}},
    {"type":"Feature","properties":{"id":"cw-4"},"geometry":{"type":"LineString","coordinates":[[56.47,-12.335],[7.245,-12.335]]}},
    {"type":"Feature","properties":{"id":"cw-5"},"geometry":{"type":"LineString","coordinates":[[7.245,-12.335],[7.245,-6.684]]}},
    {"type":"Feature","properties":{"id":"cw-6"},"geometry":{"type":"LineString","coordinates":[[7.245,19.618],[27.36,19.618]]}},
    {"type":"Feature","properties":{"id":"cw-7","top_offset":-1},"geometry":{"type":"LineString","coordinates":[[14.109,-0.689],[7.848,-0.689]]}},
    {"type":"Feature","properties":{"id":"cw-8","top_offset":-1},"geometry":{"type":"LineString","coordinates":[[14.109,-6.684],[14.109,-0.689]]}},
    {"type":"Feature","properties":{"id":"cw-9","top_offset":-1},"geometry":{"type":"LineString","coordinates":[[7.848,-6.684],[14.109,-6.684]]}},
    {"type":"Feature","properties":{"id":"cw-12"},"geometry":{"type":"LineString","coordinates":[[6.648,30.641],[-9.797,30.589]]}},
    {"type":"Feature","properties":{"id":"cw-13"},"geometry":{"type":"LineString","coordinates":[[8.223,22.255],[-1.517,22.408]]}},
    {"type":"Feature","properties":{"id":"cw-14"},"geometry":{"type":"LineString","coordinates":[[-9.849,2.33],[-9.797,-23.281]]}},
    {"type":"Feature","properties":{"id":"cw-16"},"geometry":{"type":"LineString","coordinates":[[12.647,-23.333],[53.63,-23.333]]}},
    {"type":"Feature","properties":{"id":"cw-18"},"geometry":{"type":"LineString","coordinates":[[56.521,-14.931],[56.47,-12.335]]}},
    {"type":"Feature","properties":{"id":"cw-19"},"geometry":{"type":"LineString","coordinates":[[7.245,-6.684],[7.245,-0.689]]}},
    {"type":"Feature","properties":{"id":"cw-20"},"geometry":{"type":"LineString","coordinates":[[7.245,-0.689],[7.245,9.911]]}},
    {"type":"Feature","properties":{"id":"cw-21"},"geometry":{"type":"LineString","coordinates":[[7.245,9.911],[7.245,17.674]]}},
    {"type":"Feature","properties":{"id":"cw-22"},"geometry":{"type":"LineString","coordinates":[[7.245,17.674],[7.245,19.618]]}},
    {"type":"Feature","properties":{"id":"cw-32"},"geometry":{"type":"LineString","coordinates":[[53.63,-23.333],[56.521,-23.333]]}},
    {"type":"Feature","properties":{"id":"cw-33"},"geometry":{"type":"LineString","coordinates":[[24.469,30.641],[27.36,30.641]]}}
  ]
}
