{
  "type": "FeatureCollection",
  "features": [
    {"type":"Feature","properties":{"id":"sp-61"},"geometry":{"type":"Polygon","coordinates":[[[56.521,-15.915],[53.63,-15.915],[53.63,-23.333],[56.521,-23.333],[56.521,-15.915]]]}},
    {"type":"Feature","properties":{"id":"sp-62"},"geometry":{"type":"Polygon","coordinates":[[[12.647,-17.315],[12.647,-23.333],[53.63,-23.333],[53.63,-15.915],[53.63,-15],[43.716,-15],[43.716,-23.206],[43.716,-15],[35.716,-15],[35.716,-23.2],[35.716,-15],[29.716,-15],[29.716,-23.206],[29.716,-15],[21.716,-15],[21.716,-23.206],[21.716,-15],[12.647,-15],[12.647,-17.315]]]}},
    {"type":"Feature","properties":{"id":"sp-63"},"geometry":{"type":"Polygon","coordinates":[[[12.647,-17.315],[12.647,-23.333],[53.63,-23.333],[53.63,-15.915],[53.63,-15],[43.716,-15],[43.716,-23.206],[43.716,-15],[35.716,-15],[35.716,-23.2],[35.716,-15],[29.716,-15],[29.716,-23.206],[29.716,-15],[21.716,-15],[21.716,-23.206],[21.716,-15],[12.647,-15],[12.647,-17.315]]]}},
    {"type":"Feature","properties":{"id":"sp-64"},"geometry":{"type":"Polygon","coordinates":[[[12.647,-17.315],[12.647,-23.333],[53.63,-23.333],[53.63,-15.915],[53.63,-15],[43.716,-15],[43.716,-23.206],[43.716,-15],[35.716,-15],[35.716,-23.2],[35.716,-15],[29.716,-15],[29.716,-23.206],[29.716,-15],[21.716,-15],[21.716,-23.206],[21.716,-15],[12.647,-15],[12.647,-17.315]]]}},
    {"type":"Feature","properties":{"id":"sp-65"},"geometry":{"type":"Polygon","coordinates":[[[12.647,-17.315],[12.647,-23.333],[53.63,-23.333],[53.63,-15.915],[53.63,-15],[43.716,-15],[43.716,-23.206],[43.716,-15],[35.716,-15],[35.716,-23.2],[35.716,-15],[29.716,-15],[29.716,-23.206],[29.716,-15],[21.716,-15],[21.716,-23.206],[21.716,-15],[12.647,-15],[12.647,-17.315]]]}},
    {"type":"Feature","properties":{"id":"sp-66"},"geometry":{"type":"Polygon","coordinates":[[[12.647,-17.315],[12.647,-23.333],[53.63,-23.333],[53.63,-15.915],[53.63,-15],[43.716,-15],[43.716,-23.206],[43.716,-15],[35.716,-15],[35.716,-23.2],[35.716,-15],[29.716,-15],[29.716,-23.206],[29.716,-15],[21.716,-15],[21.716,-23.206],[21.716,-15],[12.647,-15],[12.647,-17.315]]]}},
    {"type":"Feature","properties":{"id":"sp-67"},"geometry":{"type":"Polygon","coordinates":[[[12.647,-23.333],[12.647,-17.315],[10.947,-17.315],[10.245,-17.315],[10.245,-23.333],[12.647,-23.333]]]}},
    {"type":"Feature","properties":{"id":"sp-68"},"geometry":{"type":"Polygon","coordinates":[[[7.245,-17.315],[7.245,-23.333],[9.745,-23.333],[9.745,-17.315],[8.945,-17.315],[7.245,-17.315]]]}},
    {"type":"Feature","properties":{"id":"sp-69"},"geometry":{"type":"Polygon","coordinates":[[[3.854,-15],[1.354,-15],[1.354,-15.915],[1.354,-23.333],[7.245,-23.333],[7.245,-17.315],[3.854,-17.315],[3.854,-15]]]}},
    {"type":"Feature","properties":{"id":"sp-70"},"geometry":{"type":"Polygon","coordinates":[[[7.245,-15],[3.854,-15],[3.854,-17.315],[7.245,-17.315],[7.245,-15]]]}},
    {"type":"Feature","properties":{"id":"sp-71"},"geometry":{"type":"Polygon","coordinates":[[[1.354,-15],[3.854,-15],[7.245,-15],[7.245,-12.335],[7.245,-6.684],[6.448,-6.684],[7.245,-6.684],[7.245,-0.689],[6.448,-0.689],[7.245,-0.689],[7.245,9.911],[6.448,9.911],[7.245,9.911],[7.245,17.674],[6.448,17.674],[7.245,17.674],[7.245,19.618],[7.055,22.273],[1.648,22.358],[1.648,22.255],[1.648,22.358],[-1.517,22.408],[-1.517,17.674],[-1.517,10.63],[-1.517,5.43],[-1.517,2.33],[-1.517,-3.74],[-1.517,-13.74],[-1.517,-14.931],[-1.486,-23.333],[1.354,-23.333],[1.354,-15.915],[-1.486,-15.915],[1.354,-15.915],[1.354,-15]]]}},
    {"type":"Feature","properties":{"id":"sp-72"},"geometry":{"type":"Polygon","coordinates":[[[-1.517,-3.74],[-1.517,2.33],[-7.017,2.33],[-9.849,2.33],[-9.797,-23.281],[-1.486,-23.333],[-1.517,-14.931],[-1.517,-13.74],[-9.722,-13.74],[-1.517,-13.74],[-1.517,-3.74],[-9.722,-3.74],[-1.517,-3.74]]]}},
    {"type":"Feature","properties":{"id":"sp-73"},"geometry":{"type":"Polygon","coordinates":[[[-1.517,-3.74],[-1.517,2.33],[-7.017,2.33],[-9.849,2.33],[-9.797,-23.281],[-1.486,-23.333],[-1.517,-14.931],[-1.517,-13.74],[-9.722,-13.74],[-1.517,-13.74],[-1.517,-3.74],[-9.722,-3.74],[-1.517,-3.74]]]}},
    {"type":"Feature","properties":{"id":"sp-74"},"geometry":{"type":"Polygon","coordinates":[[[-1.517,-3.74],[-1.517,2.33],[-7.017,2.33],[-9.849,2.33],[-9.797,-23.281],[-1.486,-23.333],[-1.517,-14.931],[-1.517,-13.74],[-9.722,-13.74],[-1.517,-13.74],[-1.517,-3.74],[-9.722,-3.74],[-1.517,-3.74]]]}},
    {"type":"Feature","properties":{"id":"sp-75"},"geometry":{"type":"Polygon","coordinates":[[[-9.849,2.33],[-7.017,2.33],[-7.017,5.43],[-9.849,5.43],[-9.849,2.33]]]}},
    {"type":"Feature","properties":{"id":"sp-76"},"geometry":{"type":"Polygon","coordinates":[[[-1.517,2.33],[-1.517,5.43],[-7.017,5.43],[-7.017,2.33],[-1.517,2.33]]]}},
    {"type":"Feature","properties":{"id":"sp-77"},"geometry":{"type":"Polygon","coordinates":[[[1.354,-15],[3.854,-15],[7.245,-15],[7.245,-12.335],[7.245,-6.684],[6.448,-6.684],[7.245,-6.684],[7.245,-0.689],[6.448,-0.689],[7.245,-0.689],[7.245,9.911],[6.448,9.911],[7.245,9.911],[7.245,17.674],[6.448,17.674],[7.245,17.674],[7.245,19.618],[7.055,22.273],[1.648,22.358],[1.648,22.255],[1.648,22.358],[-1.517,22.408],[-1.517,17.674],[-1.517,10.63],[-1.517,5.43],[-1.517,2.33],[-1.517,-3.74],[-1.517,-13.74],[-1.517,-14.931],[-1.486,-23.333],[1.354,-23.333],[1.354,-15.915],[-1.486,-15.915],[1.354,-15.915],[1.354,-15]]]}},
    {"type":"Feature","properties":{"id":"sp-78"},"geometry":{"type":"Polygon","coordinates":[[[-1.517,5.43],[-1.517,10.63],[-9.849,10.63],[-9.849,5.43],[-7.017,5.43],[-1.517,5.43]]]}},
    {"type":"Feature","properties":{"id":"sp-79"},"geometry":{"type":"Polygon","coordinates":[[[-1.517,10.63],[-1.517,17.674],[-9.849,17.674],[-9.849,10.63],[-1.517,10.63]]]}},
    {"type":"Feature","properties":{"id":"sp-80"},"geometry":{"type":"Polygon","coordinates":[[[1.648,22.389],[7.049,22.358],[7.045,22.408],[7.045,24.608],[8.223,24.608],[8.223,30.641],[6.648,30.641],[-9.797,30.589],[-9.849,22.332],[-9.849,17.674],[-1.517,17.674],[-1.517,22.408],[1.648,22.389],[1.648,30.514],[1.648,22.389]]]}},
    {"type":"Feature","properties":{"id":"sp-81"},"geometry":{"type":"Polygon","coordinates":[[[1.648,22.389],[7.049,22.358],[7.045,22.408],[7.045,24.608],[8.223,24.608],[8.223,30.641],[6.648,30.641],[-9.797,30.589],[-9.849,22.332],[-9.849,17.674],[-1.517,17.674],[-1.517,22.408],[1.648,22.389],[1.648,30.514],[1.648,22.389]]]}},
    {"type":"Feature","properties":{"id":"sp-82"},"geometry":{"type":"Polygon","coordinates":[[[8.223,22.351],[23.869,22.255],[23.869,24.608],[21.213,24.608],[21.213,22.255],[21.213,24.608],[23.869,24.608],[24.469,24.608],[24.469,30.641],[16.013,30.641],[16.013,22.255],[16.013,30.641],[9.713,30.641],[9.713,24.608],[9.713,22.408],[9.713,24.608],[8.223,24.608],[8.223,22.351]]]}},
    {"type":"Feature","properties":{"id":"sp-83"},"geometry":{"type":"Polygon","coordinates":[[[8.223,22.351],[23.869,22.255],[23.869,24.608],[21.213,24.608],[21.213,22.255],[21.213,24.608],[23.869,24.608],[24.469,24.608],[24.469,30.641],[16.013,30.641],[16.013,22.255],[16.013,30.641],[9.713,30.641],[9.713,24.608],[9.713,22.408],[9.713,24.608],[8.223,24.608],[8.223,22.351]]]}},
    {"type":"Feature","properties":{"id":"sp-84"},"geometry":{"type":"Polygon","coordinates":[[[8.223,22.351],[23.869,22.255],[23.869,24.608],[21.213,24.608],[21.213,22.255],[21.213,24.608],[23.869,24.608],[24.469,24.608],[24.469,30.641],[16.013,30.641],[16.013,22.255],[16.013,30.641],[9.713,30.641],[9.713,24.608],[9.713,22.408],[9.713,24.608],[8.223,24.608],[8.223,22.351]]]}},
    {"type":"Feature","properties":{"id":"sp-85"},"geometry":{"type":"Polygon","coordinates":[[[8.223,22.351],[23.869,22.255],[23.869,24.608],[21.213,24.608],[21.213,22.255],[21.213,24.608],[23.869,24.608],[24.469,24.608],[24.469,30.641],[16.013,30.641],[16.013,22.255],[16.013,30.641],[9.713,30.641],[9.713,24.608],[9.713,22.408],[9.713,24.608],[8.223,24.608],[8.223,22.351]]]}},
    {"type":"Feature","properties":{"id":"sp-86"},"geometry":{"type":"Polygon","coordinates":[[[24.469,23.323],[27.36,23.323],[27.36,30.641],[24.469,30.641],[24.469,24.608],[24.469,23.323]]]}},
    {"type":"Feature","properties":{"id":"sp-87"},"geometry":{"type":"Polygon","coordinates":[[[24.469,22.255],[23.869,22.255],[8.223,22.351],[8.223,22.255],[7.055,22.273],[7.245,19.618],[27.36,19.618],[27.36,22.339],[27.36,23.323],[24.469,23.323],[24.469,22.255]]]}}
  ]
}
