{
  "type": "FeatureCollection",
  "features": [
    {"type":"Feature","properties":{"id":"sp-32"},"geometry":{"type":"Polygon","coordinates":[[[56.521,-15.915],[53.63,-15.915],[53.63,-23.333],[56.521,-23.333],[56.521,-15.915]]]}},
    {"type":"Feature","properties":{"id":"sp-33"},"geometry":{"type":"Polygon","coordinates":[[[12.647,-17.315],[12.647,-23.333],[53.63,-23.333],[53.63,-15.915],[53.63,-15],[49.716,-15],[49.716,-23.206],[49.716,-15],[45.716,-15],[45.716,-23.2],[45.716,-15],[39.716,-15],[39.716,-23.2],[39.716,-15],[35.716,-15],[35.716,-23.2],[35.716,-15],[31.716,-15],[31.716,-23.206],[31.716,-15],[27.716,-15],[27.716,-23.206],[27.716,-15],[21.716,-15],[21.716,-23.206],[21.716,-15],[12.647,-15],[12.647,-17.315]]]}},
    {"type":"Feature","properties":{"id":"sp-34"},"geometry":{"type":"Polygon","coordinates":[[[12.647,-17.315],[12.647,-23.333],[53.63,-23.333],[53.63,-15.915],[53.63,-15],[49.716,-15],[49.716,-23.206],[49.716,-15],[45.716,-15],[45.716,-23.2],[45.716,-15],[39.716,-15],[39.716,-23.2],[39.716,-15],[35.716,-15],[35.716,-23.2],[35.716,-15],[31.716,-15],[31.716,-23.206],[31.716,-15],[27.716,-15],[27.716,-23.206],[27.716,-15],[21.716,-15],[21.716,-23.206],[21.716,-15],[12.647,-15],[12.647,-17.315]]]}},
    {"type":"Feature","properties":{"id":"sp-35"},"geometry":{"type":"Polygon","coordinates":[[[12.647,-17.315],[12.647,-23.333],[53.63,-23.333],[53.63,-15.915],[53.63,-15],[49.716,-15],[49.716,-23.206],[49.716,-15],[45.716,-15],[45.716,-23.2],[45.716,-15],[39.716,-15],[39.716,-23.2],[39.716,-15],[35.716,-15],[35.716,-23.2],[35.716,-15],[31.716,-15],[31.716,-23.206],[31.716,-15],[27.716,-15],[27.716,-23.206],[27.716,-15],[21.716,-15],[21.716,-23.206],[21.716,-15],[12.647,-15],[12.647,-17.315]]]}},
    {"type":"Feature","properties":{"id":"sp-36"},"geometry":{"type":"Polygon","coordinates":[[[12.647,-17.315],[12.647,-23.333],[53.63,-23.333],[53.63,-15.915],[53.63,-15],[49.716,-15],[49.716,-23.206],[49.716,-15],[45.716,-15],[45.716,-23.2],[45.716,-15],[39.716,-15],[39.716,-23.2],[39.716,-15],[35.716,-15],[35.716,-23.2],[35.716,-15],[31.716,-15],[31.716,-23.206],[31.716,-15],[27.716,-15],[27.716,-23.206],[27.716,-15],[21.716,-15],[21.716,-23.206],[21.716,-15],[12.647,-15],[12.647,-17.315]]]}},
    {"type":"Feature","properties":{"id":"sp-37"},"geometry":{"type":"Polygon","coordinates":[[[7.245,-15],[7.245,-17.315],[8.945,-17.315],[8.945,-15],[10.947,-15],[10.947,-17.315],[12.647,-17.315],[12.647,-15],[21.716,-15],[27.716,-15],[31.716,-15],[35.716,-15],[39.716,-15],[45.716,-15],[49.716,-15],[53.63,-15],[53.63,-15.915],[56.521,-15.915],[56.521,-14.931],[56.47,-12.335],[7.245,-12.335],[7.245,-15]]]}},
    {"type":"Feature","properties":{"id":"sp-38"},"geometry":{"type":"Polygon","coordinates":[[[12.647,-23.333],[12.647,-17.315],[10.947,-17.315],[10.245,-17.315],[10.245,-23.333],[12.647,-23.333]]]}},
    {"type":"Feature","properties":{"id":"sp-39"},"geometry":{"type":"Polygon","coordinates":[[[7.245,-17.315],[7.245,-23.333],[9.745,-23.333],[9.745,-17.315],[8.945,-17.315],[7.245,-17.315]]]}},
    {"type":"Feature","properties":{"id":"sp-40"},"geometry":{"type":"Polygon","coordinates":[[[3.854,-15],[1.354,-15],[1.354,-15.915],[1.354,-23.333],[7.245,-23.333],[7.245,-17.315],[3.854,-17.315],[3.854,-15]]]}},
    {"type":"Feature","properties":{"id":"sp-41"},"geometry":{"type":"Polygon","coordinates":[[[7.245,-15],[3.854,-15],[3.854,-17.315],[7.245,-17.315],[7.245,-15]]]}},
    {"type":"Feature","properties":{"id":"sp-42"},"geometry":{"type":"Polygon","coordinates":[[[1.354,-15],[3.854,-15],[7.245,-15],[7.245,-12.335],[7.245,-6.684],[6.448,-6.684],[7.245,-6.684],[7.245,-0.689],[6.448,-0.689],[7.245,-0.689],[7.245,9.911],[6.448,9.911],[7.245,9.911],[7.245,17.674],[6.448,17.674],[-1.517,17.674],[-1.517,10.63],[-1.517,5.43],[-1.517,2.33],[-1.517,-11.74],[-1.517,-14.931],[-1.486,-23.333],[1.354,-23.333],[1.354,-15.915],[-1.486,-15.915],[1.354,-15.915],[1.354,-15]]]}},
    {"type":"Feature","properties":{"id":"sp-43"},"geometry":{"type":"Polygon","coordinates":[[[1.354,-15],[3.854,-15],[7.245,-15],[7.245,-12.335],[7.245,-6.684],[6.448,-6.684],[7.245,-6.684],[7.245,-0.689],[6.448,-0.689],[7.245,-0.689],[7.245,9.911],[6.448,9.911],[7.245,9.911],[7.245,17.674],[6.448,17.674],[-1.517,17.674],[-1.517,10.63],[-1.517,5.43],[-1.517,2.33],[-1.517,-11.74],[-1.517,-14.931],[-1.486,-23.333],[1.354,-23.333],[1.354,-15.915],[-1.486,-15.915],[1.354,-15.915],[1.354,-15]]]}},
    {"type":"Feature","properties":{"id":"sp-44"},"geometry":{"type":"Polygon","coordinates":[[[-9.722,-11.74],[-1.517,-11.74],[-1.517,2.33],[-7.017,2.33],[-7.017,5.43],[-9.849,5.43],[-9.849,2.33],[-9.797,-23.281],[-1.486,-23.333],[-1.517,-14.931],[-1.517,-11.74],[-9.722,-11.74]]]}},
    {"type":"Feature","properties":{"id":"sp-45"},"geometry":{"type":"Polygon","coordinates":[[[-9.722,-11.74],[-1.517,-11.74],[-1.517,2.33],[-7.017,2.33],[-7.017,5.43],[-9.849,5.43],[-9.849,2.33],[-9.797,-23.281],[-1.486,-23.333],[-1.517,-14.931],[-1.517,-11.74],[-9.722,-11.74]]]}},
    {"type":"Feature","properties":{"id":"sp-46"},"geometry":{"type":"Polygon","coordinates":[[[-7.017,2.33],[-1.517,2.33],[-1.517,5.43],[-7.017,5.43],[-7.017,2.33]]]}},
    {"type":"Feature","properties":{"id":"sp-47"},"geometry":{"type":"Polygon","coordinates":[[[-9.849,5.43],[-7.017,5.43],[-1.517,5.43],[-1.517,10.63],[-9.849,10.63],[-9.849,5.43]]]}},
    {"type":"Feature","properties":{"id":"sp-48"},"geometry":{"type":"Polygon","coordinates":[[[-9.849,10.63],[-1.517,10.63],[-1.517,17.674],[-9.849,17.674],[-9.849,14.43],[-4.097,14.43],[-9.849,14.43],[-9.849,10.63]]]}},
    {"type":"Feature","properties":{"id":"sp-49"},"geometry":{"type":"Polygon","coordinates":[[[-9.849,17.674],[-1.517,17.674],[-1.517,22.408],[1.945,22.408],[1.945,28.308],[1.945,30.589],[1.945,28.308],[1.945,22.408],[4.745,22.408],[4.745,24.608],[4.745,26.858],[8.223,26.858],[8.223,30.641],[6.648,30.641],[-9.797,30.589],[-9.849,22.332],[-9.849,17.674]]]}},
    {"type":"Feature","properties":{"id":"sp-50"},"geometry":{"type":"Polygon","coordinates":[[[-9.849,17.674],[-1.517,17.674],[-1.517,22.408],[1.945,22.408],[1.945,28.308],[1.945,30.589],[1.945,28.308],[1.945,22.408],[4.745,22.408],[4.745,24.608],[4.745,26.858],[8.223,26.858],[8.223,30.641],[6.648,30.641],[-9.797,30.589],[-9.849,22.332],[-9.849,17.674]]]}},
    {"type":"Feature","properties":{"id":"sp-51"},"geometry":{"type":"Polygon","coordinates":[[[8.223,26.858],[4.745,26.858],[4.745,24.608],[7.045,24.608],[8.223,24.608],[8.223,26.858]]]}},
    {"type":"Feature","properties":{"id":"sp-52"},"geometry":{"type":"Polygon","coordinates":[[[24.469,22.255],[23.869,22.255],[21.213,22.255],[21.213,24.608],[19.913,24.608],[17.213,24.608],[17.213,22.408],[12.013,22.408],[12.183,30.641],[8.223,30.641],[8.413,26.858],[12.013,26.858],[8.413,26.858],[8.223,24.608],[9.713,24.608],[12.013,24.608],[9.713,24.608],[9.713,22.408],[8.223,22.408],[8.223,22.255],[-1.517,22.408],[-1.517,17.674],[6.448,17.674],[7.245,17.674],[7.245,19.618],[27.36,19.618],[27.36,22.339],[27.36,23.323],[24.469,23.323],[24.469,22.255]]]}},
    {"type":"Feature","properties":{"id":"sp-53"},"geometry":{"type":"Polygon","coordinates":[[[9.713,24.608],[8.223,24.608],[8.223,22.408],[9.713,22.408],[9.713,24.608]]]}},
    {"type":"Feature","properties":{"id":"sp-54"},"geometry":{"type":"Polygon","coordinates":[[[24.469,22.255],[23.869,22.255],[21.213,22.255],[21.213,24.608],[19.913,24.608],[17.213,24.608],[17.213,22.408],[12.013,22.408],[12.183,30.641],[8.223,30.641],[8.413,26.858],[12.013,26.858],[8.413,26.858],[8.223,24.608],[9.713,24.608],[12.013,24.608],[9.713,24.608],[9.713,22.408],[8.223,22.408],[8.223,22.255],[-1.517,22.408],[-1.517,17.674],[6.448,17.674],[7.245,17.674],[7.245,19.618],[27.36,19.618],[27.36,22.339],[27.36,23.323],[24.469,23.323],[24.469,22.255]]]}},
    {"type":"Feature","properties":{"id":"sp-55"},"geometry":{"type":"Polygon","coordinates":[[[17.213,24.608],[17.213,30.641],[12.183,30.641],[12.013,22.408],[17.213,22.408],[17.213,24.608]]]}},
    {"type":"Feature","properties":{"id":"sp-56"},"geometry":{"type":"Polygon","coordinates":[[[17.213,24.608],[19.913,24.608],[19.913,30.641],[17.213,30.641],[17.213,24.608]]]}},
    {"type":"Feature","properties":{"id":"sp-57"},"geometry":{"type":"Polygon","coordinates":[[[19.913,24.608],[21.213,24.608],[23.869,24.608],[24.469,24.608],[24.469,30.641],[19.913,30.641],[19.913,24.608]]]}},
    {"type":"Feature","properties":{"id":"sp-58"},"geometry":{"type":"Polygon","coordinates":[[[21.213,22.255],[23.869,22.255],[23.869,24.608],[21.213,24.608],[21.213,22.255]]]}},
    {"type":"Feature","properties":{"id":"sp-59"},"geometry":{"type":"Polygon","coordinates":[[[24.469,23.323],[27.36,23.323],[27.36,30.641],[24.469,30.641],[24.469,24.608],[24.469,23.323]]]}},
    {"type":"Feature","properties":{"id":"sp-60"},"geometry":{"type":"Polygon","coordinates":[[[24.469,22.255],[23.869,22.255],[21.213,22.255],[21.213,24.608],[19.913,24.608],[17.213,24.608],[17.213,22.408],[12.013,22.408],[12.183,30.641],[8.223,30.641],[8.413,26.858],[12.013,26.858],[8.413,26.858],[8.223,24.608],[9.713,24.608],[12.013,24.608],[9.713,24.608],[9.713,22.408],[8.223,22.408],[8.223,22.255],[-1.517,22.408],[-1.517,17.674],[6.448,17.674],[7.245,17.674],[7.245,19.618],[27.36,19.618],[27.36,22.339],[27.36,23.323],[24.469,23.323],[24.469,22.255]]]}},
    {"type":"Feature","properties":{"id":"sp-88"},"geometry":{"type":"Polygon","coordinates":[[[12.647,-17.315],[12.647,-23.333],[53.63,-23.333],[53.63,-15.915],[53.63,-15],[49.716,-15],[49.716,-23.206],[49.716,-15],[45.716,-15],[45.716,-23.2],[45.716,-15],[39.716,-15],[39.716,-23.2],[39.716,-15],[35.716,-15],[35.716,-23.2],[35.716,-15],[31.716,-15],[31.716,-23.206],[31.716,-15],[27.716,-15],[27.716,-23.206],[27.716,-15],[21.716,-15],[21.716,-23.206],[21.716,-15],[12.647,-15],[12.647,-17.315]]]}},
    {"type":"Feature","properties":{"id":"sp-89"},"geometry":{"type":"Polygon","coordinates":[[[12.647,-17.315],[12.647,-23.333],[53.63,-23.333],[53.63,-15.915],[53.63,-15],[49.716,-15],[49.716,-23.206],[49.716,-15],[45.716,-15],[45.716,-23.2],[45.716,-15],[39.716,-15],[39.716,-23.2],[39.716,-15],[35.716,-15],[35.716,-23.2],[35.716,-15],[31.716,-15],[31.716,-23.206],[31.716,-15],[27.716,-15],[27.716,-23.206],[27.716,-15],[21.716,-15],[21.716,-23.206],[21.716,-15],[12.647,-15],[12.647,-17.315]]]}},
    {"type":"Feature","properties":{"id":"sp-90"},"geometry":{"type":"Polygon","coordinates":[[[12.647,-17.315],[12.647,-23.333],[53.63,-23.333],[53.63,-15.915],[53.63,-15],[49.716,-15],[49.716,-23.206],[49.716,-15],[45.716,-15],[45.716,-23.2],[45.716,-15],[39.716,-15],[39.716,-23.2],[39.716,-15],[35.716,-15],[35.716,-23.2],[35.716,-15],[31.716,-15],[31.716,-23.206],[31.716,-15],[27.716,-15],[27.716,-23.206],[27.716,-15],[21.716,-15],[21.716,-23.206],[21.716,-15],[12.647,-15],[12.647,-17.315]]]}},
    {"type":"Feature","properties":{"id":"sp-91"},"geometry":{"type":"Polygon","coordinates":[[[12.647,-17.315],[12.647,-23.333],[53.63,-23.333],[53.63,-15.915],[53.63,-15],[49.716,-15],[49.716,-23.206],[49.716,-15],[45.716,-15],[45.716,-23.2],[45.716,-15],[39.716,-15],[39.716,-23.2],[39.716,-15],[35.716,-15],[35.716,-23.2],[35.716,-15],[31.716,-15],[31.716,-23.206],[31.716,-15],[27.716,-15],[27.716,-23.206],[27.716,-15],[21.716,-15],[21.716,-23.206],[21.716,-15],[12.647,-15],[12.647,-17.315]]]}}
  ]
}
