{
  "type": "FeatureCollection",
  "features": [
    {"type":"Feature","properties":{"id":"sp-1"},"geometry":{"type":"Polygon","coordinates":[[[-4.086,6.067],[-1.517,6.067],[-1.517,22.408],[-9.849,22.332],[-9.849,6.067],[-7.097,6.067],[-4.086,6.067],[-4.086,22.332],[-4.086,6.067]]]}},
    {"type":"Feature","properties":{"id":"sp-2"},"geometry":{"type":"Polygon","coordinates":[[[1.354,-15],[3.854,-15],[7.245,-15],[7.245,-12.335],[7.245,-6.684],[6.448,-6.684],[7.245,-6.684],[7.245,-0.689],[6.448,-0.689],[7.245,-0.689],[7.245,9.911],[6.448,9.911],[7.245,9.911],[7.245,17.674],[6.448,17.674],[7.245,17.674],[7.245,19.618],[7.055,22.273],[-1.517,22.408],[-1.517,6.067],[-1.517,4.33],[-2.398,4.33],[-2.398,2.33],[-1.517,2.33],[-1.517,-3.74],[-1.517,-7.74],[-1.517,-14.931],[-1.486,-23.333],[1.354,-23.333],[1.354,-15.915],[-1.486,-15.915],[1.354,-15.915],[1.354,-15]]]}},
    {"type":"Feature","properties":{"id":"sp-3"},"geometry":{"type":"Polygon","coordinates":[[[-9.849,22.332],[-1.517,22.408],[7.055,22.273],[7.045,22.408],[7.055,22.273],[8.223,22.255],[8.223,24.608],[8.223,30.641],[6.648,30.641],[-9.797,30.589],[-9.849,22.332]]]}},
    {"type":"Feature","properties":{"id":"sp-4"},"geometry":{"type":"Polygon","coordinates":[[[12.058,24.608],[12.183,30.641],[8.223,30.641],[8.223,24.608],[12.058,24.608]]]}},
    {"type":"Feature","properties":{"id":"sp-5"},"geometry":{"type":"Polygon","coordinates":[[[8.223,22.255],[14.923,22.255],[14.923,24.608],[12.058,24.608],[12.013,22.408],[12.058,24.608],[8.223,24.608],[8.223,22.255]]]}},
    {"type":"Feature","properties":{"id":"sp-6"},"geometry":{"type":"Polygon","coordinates":[[[8.223,22.255],[14.923,22.255],[14.923,24.608],[12.058,24.608],[12.013,22.408],[12.058,24.608],[8.223,24.608],[8.223,22.255]]]}},
    {"type":"Feature","properties":{"id":"sp-7"},"geometry":{"type":"Polygon","coordinates":[[[14.923,22.255],[18.203,22.255],[18.203,27.889],[18.203,30.641],[12.183,30.641],[12.058,24.608],[14.923,24.608],[14.923,22.255]]]}},
    {"type":"Feature","properties":{"id":"sp-8"},"geometry":{"type":"Polygon","coordinates":[[[18.203,30.641],[18.203,27.889],[21.213,27.889],[24.469,27.889],[24.469,30.641],[18.203,30.641]]]}},
    {"type":"Feature","properties":{"id":"sp-9"},"geometry":{"type":"Polygon","coordinates":[[[18.203,22.255],[21.213,22.255],[21.213,24.608],[21.213,27.889],[18.203,27.889],[18.203,22.255]]]}},
    {"type":"Feature","properties":{"id":"sp-10"},"geometry":{"type":"Polygon","coordinates":[[[24.469,27.889],[21.213,27.889],[21.213,24.608],[23.869,24.608],[24.469,24.608],[24.469,27.889]]]}},
    {"type":"Feature","properties":{"id":"sp-11"},"geometry":{"type":"Polygon","coordinates":[[[21.213,22.255],[23.869,22.255],[23.869,24.608],[21.213,24.608],[21.213,22.255]]]}},
    {"type":"Feature","properties":{"id":"sp-12"},"geometry":{"type":"Polygon","coordinates":[[[24.469,23.323],[27.36,23.323],[27.36,30.641],[24.469,30.641],[24.469,27.889],[24.469,24.608],[24.469,23.323]]]}},
    {"type":"Feature","properties":{"id":"sp-13"},"geometry":{"type":"Polygon","coordinates":[[[24.469,22.255],[23.869,22.255],[21.213,22.255],[18.203,22.255],[14.923,22.255],[8.223,22.255],[7.055,22.273],[7.245,19.618],[27.36,19.618],[27.36,22.339],[27.36,23.323],[24.469,23.323],[24.469,22.255]]]}},
    {"type":"Feature","properties":{"id":"sp-14"},"geometry":{"type":"Polygon","coordinates":[[[-7.097,6.067],[-9.849,6.067],[-9.849,2.33],[-7.017,2.33],[-7.097,6.067]]]}},
    {"type":"Feature","properties":{"id":"sp-15"},"geometry":{"type":"Polygon","coordinates":[[[-1.517,6.067],[-4.086,6.067],[-7.097,6.067],[-7.017,2.33],[-2.398,2.33],[-2.398,4.33],[-1.517,4.33],[-1.517,6.067]]]}},
    {"type":"Feature","properties":{"id":"sp-16"},"geometry":{"type":"Polygon","coordinates":[[[-1.517,2.33],[-2.398,2.33],[-7.017,2.33],[-9.849,2.33],[-9.797,-23.281],[-1.486,-23.333],[-1.517,-14.931],[-1.517,-7.74],[-9.722,-7.74],[-1.517,-7.74],[-1.517,-3.74],[-9.722,-3.74],[-1.517,-3.74],[-1.517,2.33]]]}},
    {"type":"Feature","properties":{"id":"sp-17"},"geometry":{"type":"Polygon","coordinates":[[[7.245,-6.684],[7.848,-6.684],[14.109,-6.684],[14.109,-0.689],[7.848,-0.689],[7.245,-0.689],[7.245,-6.684]]]}},
    {"type":"Feature","properties":{"id":"sp-18"},"geometry":{"type":"Polygon","coordinates":[[[-1.517,2.33],[-2.398,2.33],[-7.017,2.33],[-9.849,2.33],[-9.797,-23.281],[-1.486,-23.333],[-1.517,-14.931],[-1.517,-7.74],[-9.722,-7.74],[-1.517,-7.74],[-1.517,-3.74],[-9.722,-3.74],[-1.517,-3.74],[-1.517,2.33]]]}},
    {"type":"Feature","properties":{"id":"sp-19"},"geometry":{"type":"Polygon","coordinates":[[[-1.517,2.33],[-2.398,2.33],[-7.017,2.33],[-9.849,2.33],[-9.797,-23.281],[-1.486,-23.333],[-1.517,-14.931],[-1.517,-7.74],[-9.722,-7.74],[-1.517,-7.74],[-1.517,-3.74],[-9.722,-3.74],[-1.517,-3.74],[-1.517,2.33]]]}},
    {"type":"Feature","properties":{"id":"sp-20"},"geometry":{"type":"Polygon","coordinates":[[[1.354,-15],[3.854,-15],[7.245,-15],[7.245,-12.335],[7.245,-6.684],[6.448,-6.684],[7.245,-6.684],[7.245,-0.689],[6.448,-0.689],[7.245,-0.689],[7.245,9.911],[6.448,9.911],[7.245,9.911],[7.245,17.674],[6.448,17.674],[7.245,17.674],[7.245,19.618],[7.055,22.273],[-1.517,22.408],[-1.517,6.067],[-1.517,4.33],[-2.398,4.33],[-2.398,2.33],[-1.517,2.33],[-1.517,-3.74],[-1.517,-7.74],[-1.517,-14.931],[-1.486,-23.333],[1.354,-23.333],[1.354,-15.915],[-1.486,-15.915],[1.354,-15.915],[1.354,-15]]]}},
    {"type":"Feature","properties":{"id":"sp-21"},"geometry":{"type":"Polygon","coordinates":[[[7.245,-15],[3.854,-15],[3.854,-17.315],[7.245,-17.315],[7.245,-15]]]}},
    {"type":"Feature","properties":{"id":"sp-22"},"geometry":{"type":"Polygon","coordinates":[[[3.854,-15],[1.354,-15],[1.354,-15.915],[1.354,-23.333],[7.245,-23.333],[7.245,-17.315],[3.854,-17.315],[3.854,-15]]]}},
    {"type":"Feature","properties":{"id":"sp-23"},"geometry":{"type":"Polygon","coordinates":[[[7.245,-17.315],[7.245,-23.333],[9.745,-23.333],[9.745,-17.315],[8.945,-17.315],[7.245,-17.315]]]}},
    {"type":"Feature","properties":{"id":"sp-24"},"geometry":{"type":"Polygon","coordinates":[[[12.647,-23.333],[12.647,-17.315],[10.947,-17.315],[10.245,-17.315],[10.245,-23.333],[12.647,-23.333]]]}},
    {"type":"Feature","properties":{"id":"sp-25"},"geometry":{"type":"Polygon","coordinates":[[[7.245,-15],[7.245,-17.315],[8.945,-17.315],[8.945,-15],[10.947,-15],[10.947,-17.315],[12.647,-17.315],[12.647,-15],[23.716,-15],[29.716,-15],[41.716,-15],[47.716,-15],[53.63,-15],[53.63,-15.915],[56.521,-15.915],[56.521,-14.931],[56.47,-12.335],[7.245,-12.335],[7.245,-15]]]}},
    {"type":"Feature","properties":{"id":"sp-26"},"geometry":{"type":"Polygon","coordinates":[[[12.647,-17.315],[12.647,-23.333],[53.63,-23.333],[53.63,-15.915],[53.63,-15],[47.716,-15],[47.716,-23.206],[47.716,-15],[41.716,-15],[41.716,-23.2],[41.716,-15],[29.716,-15],[29.716,-23.206],[29.716,-15],[23.716,-15],[23.716,-23.206],[23.716,-15],[12.647,-15],[12.647,-17.315]]]}},
    {"type":"Feature","properties":{"id":"sp-27"},"geometry":{"type":"Polygon","coordinates":[[[12.647,-17.315],[12.647,-23.333],[53.63,-23.333],[53.63,-15.915],[53.63,-15],[47.716,-15],[47.716,-23.206],[47.716,-15],[41.716,-15],[41.716,-23.2],[41.716,-15],[29.716,-15],[29.716,-23.206],[29.716,-15],[23.716,-15],[23.716,-23.206],[23.716,-15],[12.647,-15],[12.647,-17.315]]]}},
    {"type":"Feature","properties":{"id":"sp-28"},"geometry":{"type":"Polygon","coordinates":[[[12.647,-17.315],[12.647,-23.333],[53.63,-23.333],[53.63,-15.915],[53.63,-15],[47.716,-15],[47.716,-23.206],[47.716,-15],[41.716,-15],[41.716,-23.2],[41.716,-15],[29.716,-15],[29.716,-23.206],[29.716,-15],[23.716,-15],[23.716,-23.206],[23.716,-15],[12.647,-15],[12.647,-17.315]]]}},
    {"type":"Feature","properties":{"id":"sp-29"},"geometry":{"type":"Polygon","coordinates":[[[12.647,-17.315],[12.647,-23.333],[53.63,-23.333],[53.63,-15.915],[53.63,-15],[47.716,-15],[47.716,-23.206],[47.716,-15],[41.716,-15],[41.716,-23.2],[41.716,-15],[29.716,-15],[29.716,-23.206],[29.716,-15],[23.716,-15],[23.716,-23.206],[23.716,-15],[12.647,-15],[12.647,-17.315]]]}},
    {"type":"Feature","properties":{"id":"sp-30"},"geometry":{"type":"Polygon","coordinates":[[[12.647,-17.315],[12.647,-23.333],[53.63,-23.333],[53.63,-15.915],[53.63,-15],[47.716,-15],[47.716,-23.206],[47.716,-15],[41.716,-15],[41.716,-23.2],[41.716,-15],[29.716,-15],[29.716,-23.206],[29.716,-15],[23.716,-15],[23.716,-23.206],[23.716,-15],[12.647,-15],[12.647,-17.315]]]}},
    {"type":"Feature","properties":{"id":"sp-31"},"geometry":{"type":"Polygon","coordinates":[[[56.521,-15.915],[53.63,-15.915],[53.63,-23.333],[56.521,-23.333],[56.521,-15.915]]]}}
  ]
}
